STARLINK-32862          
1 62864U 25022L   26068.53769444  .00011000  00000+0  38389-3 0  9996
2 62864  53.1575 130.5473 0000611 156.5334 203.5695 15.30119489 61875
TEVEL2-1                
1 63217U 25052H   26068.64782323  .00020683  00000+0  70600-3 0  9994
2 63217  97.3991 324.7682 0004767 104.8919 255.2849 15.30341923 54855
