[{"OBJECT_NAME":"STARLINK-32862","OBJECT_ID":"2025-022L","EPOCH":"2026-03-09T12:54:16.799616","MEAN_MOTION":15.30119489,"ECCENTRICITY":6.118e-5,"INCLINATION":53.1575,"RA_OF_ASC_NODE":130.5473,"ARG_OF_PERICENTER":156.5334,"MEAN_ANOMALY":203.5695,"EPHEMERIS_TYPE":0,"CLASSIFICATION_TYPE":"U","NORAD_CAT_ID":62864,"ELEMENT_SET_NO":999,"REV_AT_EPOCH":6187,"BSTAR":0.00038388629,"MEAN_MOTION_DOT":0.00011,"MEAN_MOTION_DDOT":0},{"OBJECT_NAME":"TEVEL2-1","OBJECT_ID":"2025-052H","EPOCH":"2026-03-09T15:32:51.927072","MEAN_MOTION":15.30341923,"ECCENTRICITY":0.0004767,"INCLINATION":97.3991,"RA_OF_ASC_NODE":324.7682,"ARG_OF_PERICENTER":104.8919,"MEAN_ANOMALY":255.2849,"EPHEMERIS_TYPE":0,"CLASSIFICATION_TYPE":"U","NORAD_CAT_ID":63217,"ELEMENT_SET_NO":999,"REV_AT_EPOCH":5485,"BSTAR":0.000706,"MEAN_MOTION_DOT":0.00020683,"MEAN_MOTION_DDOT":0}]
